GLOBALSTAR M067 [+]     
1 32263U 07048A   24090.50034507 -.00000038  00000+0  43940-3 0  9998
2 32263  51.9712 254.1639 0001724 109.8926 285.2897 12.40641094754415
GLOBALSTAR M070 [+]     
1 32264U 07048B   24090.58408190 -.00000086  00000+0  98371-4 0  9992
2 32264  51.9767  39.8629 0000343 108.5625  62.4996 12.62288755757649
GLOBALSTAR M066 [+]     
1 32265U 07048C   24090.51366497 -.00000072  00000+0  17712-3 0  9993
2 32265  51.9662 262.0757 0001293  87.7505 307.0992 12.62258660759903
GLOBALSTAR M068 [-]     
1 32266U 07048D   24090.51795407 -.00000045  00000+0  32590-3 0  9992
2 32266  51.9873 214.6627 0000753 188.7554 250.0349 12.62782794761505
GLOBALSTAR M079 [+]     
1 37188U 10054A   24090.61233554 -.00000101  00000+0  14229-4 0  9995
2 37188  52.0050  50.0963 0000653  63.7199 107.4683 12.62267675620431
GLOBALSTAR M074 [+]     
1 37189U 10054B   24090.63884021 -.00000106  00000+0 -10859-4 0  9990
2 37189  52.0029  49.4076 0000400  78.2923  92.8453 12.62266364621045
GLOBALSTAR M076 [+]     
1 37190U 10054C   24090.34699132 -.00000094  00000+0  52452-4 0  9997
2 37190  52.0041  50.4265 0000902  95.5336  68.9164 12.62276011620727
GLOBALSTAR M077 [+]     
1 37191U 10054D   24090.17585874 -.00000076  00000+0  15448-3 0  9999
2 37191  52.0103   7.6789 0000584  84.0894  81.7079 12.62270711621078
